SPACEMOBILE-008         
1 69589U 26139A   26188.42315775  .00000613  00000+0  51460-4 0  9996
2 69589  52.9937 170.6932 0004639  37.6326 322.4989 15.12794365  3048
SPACEMOBILE-009         
1 69590U 26139B   26188.35850117  .00000601  00000+0  50953-4 0  9997
2 69590  52.9928 170.9976 0004892  32.8078 327.3216 15.12687590  3030
SPACEMOBILE-010         
1 69591U 26139C   26188.42681726  .00000587  00000+0  50381-4 0  9992
2 69591  52.9932 170.7141 0004774  24.0576 336.0637 15.12518827  3055
